NORAD_CAT_ID,OBJECT_NAME,OBJECT_TYPE,EPOCH,MEAN_MOTION,ECCENTRICITY,INCLINATION,RA_OF_ASC_NODE,ARG_OF_PERICENTER,MEAN_ANOMALY,BSTAR,MEAN_MOTION_DOT,MEAN_MOTION_DDOT,TLE_LINE0,TLE_LINE1,TLE_LINE2,SEMIMAJOR_AXIS,PERIOD,APOGEE,PERIGEE,DECAYED
51750.0,STARLINK-3505,PAYLOAD,2024-04-04 15:16:00,15.08842944,0.0001357,53.2167,229.7499,90.082,270.0328,0.00011736,1.581e-05,0.0,0 STARLINK-3505,1 51750U 22016AN  24095.63612154  .00001581  00000-0  11736-3 0  9993,2 51750  53.2167 229.7499 0001357  90.0820 270.0328 15.08842944117412,6917.871,95.437,540.675,538.798,0.0
51750.0,STARLINK-3505,PAYLOAD,2024-04-05 02:23:42,15.08845339,0.0001066,53.2165,227.6686,79.001,281.1102,7.6144e-05,9.24e-06,0.0,0 STARLINK-3505,1 51750U 22016AN  24096.09980004  .00000924  00000-0  76144-4 0  9991,2 51750  53.2165 227.6686 0001066  79.0010 281.1102 15.08845339118606,6917.864,95.437,540.467,538.992,0.0
51750.0,STARLINK-3505,PAYLOAD,2024-04-05 15:06:47,15.08845394,0.0001078,53.2165,225.2894,84.0067,276.1048,9.2292e-05,1.182e-05,0.0,0 STARLINK-3505,1 51750U 22016AN  24096.62971799  .00001182  00000-0  92292-4 0  9990,2 51750  53.2165 225.2894 0001078  84.0067 276.1048 15.08845394117560,6917.864,95.437,540.475,538.983,0.0
51750.0,STARLINK-3505,PAYLOAD,2024-04-06 10:11:25,15.0883415,0.000128,53.2173,221.7211,85.025,275.0888,3.9078e-06,-2.26e-06,0.0,0 STARLINK-3505,1 51750U 22016AN  24097.42460629 -.00000226  00000-0  39078-5 0  9997,2 51750  53.2173 221.7211 0001280  85.0250 275.0888 15.08834150118809,6917.898,95.438,540.649,538.878,0.0
51750.0,STARLINK-3505,PAYLOAD,2024-04-06 14:57:35,15.08839329,0.0001275,53.2161,220.8281,90.4372,269.6766,3.6942e-05,3e-06,0.0,0 STARLINK-3505,1 51750U 22016AN  24097.62332230  .00000300  00000-0  36942-4 0  9993,2 51750  53.2161 220.8281 0001275  90.4372 269.6766 15.08839329117718,6917.882,95.438,540.629,538.865,0.0
51750.0,STARLINK-3505,PAYLOAD,2024-04-06 18:08:21,15.08843909,0.0001139,53.2163,220.2341,84.68,275.4322,-1.3746e-06,-3.1e-06,0.0,0 STARLINK-3505,1 51750U 22016AN  24097.75580012 -.00000310  00000-0 -13746-5 0  9991,2 51750  53.2163 220.2341 0001139  84.6800 275.4322 15.08843909118859,6917.868,95.437,540.521,538.945,0.0
51750.0,STARLINK-3505,PAYLOAD,2024-04-07 08:26:50,15.08829603,0.0001107,53.2179,217.5581,82.2868,277.825,-8.623e-05,-1.659e-05,0.0,0 STARLINK-3505,1 51750U 22016AN  24098.35197479 -.00001659  00000-0 -86230-4 0  9993,2 51750  53.2179 217.5581 0001107  82.2868 277.8250 15.08829603118945,6917.912,95.438,540.543,539.011,0.0
51750.0,STARLINK-3505,PAYLOAD,2024-04-07 14:48:22,15.08835476,0.000169,53.2165,216.3668,89.1638,270.9547,-4.4336e-05,-9.94e-06,0.0,0 STARLINK-3505,1 51750U 22016AN  24098.61693064 -.00000994  00000-0 -44336-4 0  9995,2 51750  53.2165 216.3668 0001690  89.1638 270.9547 15.08835476118983,6917.894,95.438,540.928,538.59,0.0
51750.0,STARLINK-3505,PAYLOAD,2024-04-08 08:17:34,15.08859854,0.0001508,53.218,213.0994,100.3842,259.7321,0.00023321,3.427e-05,0.0,0 STARLINK-3505,1 51750U 22016AN  24099.34554084  .00003427  00000-0  23321-3 0  9996,2 51750  53.2180 213.0994 0001508 100.3842 259.7321 15.08859854119091,6917.82,95.436,540.728,538.641,0.0
51750.0,STARLINK-3505,PAYLOAD,2024-04-08 14:39:04,15.08892577,0.000143,53.218,211.9097,103.6637,256.4514,0.00048439,7.44e-05,0.0,0 STARLINK-3505,1 51750U 22016AN  24099.61046802  .00007440  00000-0  48439-3 0  9996,2 51750  53.2180 211.9097 0001430 103.6637 256.4514 15.08892577118012,6917.72,95.434,540.574,538.595,0.0
51750.0,STARLINK-3505,PAYLOAD,2024-04-09 00:11:28,15.08819273,0.0001638,53.2148,210.1216,84.2308,275.887,-5.0919e-05,-1.098e-05,0.0,0 STARLINK-3505,1 51750U 22016AN  24100.00796964 -.00001098  00000-0 -50919-4 0  9995,2 51750  53.2148 210.1216 0001638  84.2308 275.8870 15.08819273118077,6917.944,95.439,540.942,538.676,0.0
51750.0,STARLINK-3505,PAYLOAD,2024-04-09 08:08:24,15.08820168,0.0001456,53.2182,208.6379,92.7115,267.4044,-9.4656e-05,-1.793e-05,0.0,0 STARLINK-3505,1 51750U 22016AN  24100.33917418 -.00001793  00000-0 -94656-4 0  9998,2 51750  53.2182 208.6379 0001456  92.7115 267.4044 15.08820168118126,6917.941,95.439,540.813,538.799,0.0
51750.0,STARLINK-3505,PAYLOAD,2024-04-09 17:40:43,15.08824309,0.0001813,53.2148,206.8522,93.8592,266.2608,-6.2105e-05,-1.276e-05,0.0,0 STARLINK-3505,1 51750U 22016AN  24100.73661357 -.00001276  00000-0 -62105-4 0  9990,2 51750  53.2148 206.8522 0001813  93.8592 266.2608 15.08824309119301,6917.928,95.439,541.048,538.539,0.0
51750.0,STARLINK-3505,PAYLOAD,2024-04-10 06:23:47,15.08941225,0.0001571,53.218,204.4731,109.6764,250.4398,-0.0014514,-0.00023377,0.0,0 STARLINK-3505,1 51750U 22016AN  24101.26651715 -.00023377  00000-0 -14514-2 0  9991,2 51750  53.2180 204.4731 0001571 109.6764 250.4398 15.08941225119387,6917.571,95.431,540.523,538.349,0.0
51750.0,STARLINK-3505,PAYLOAD,2024-04-10 15:56:04,15.08918891,0.0001574,53.2161,202.689,106.7838,253.3327,-0.0011507,-0.00018594,0.0,0 STARLINK-3505,1 51750U 22016AN  24101.66394024 -.00018594  00000-0 -11507-2 0  9996,2 51750  53.2161 202.6890 0001574 106.7838 253.3327 15.08918891119449,6917.639,95.433,540.593,538.415,0.0
51750.0,STARLINK-3505,PAYLOAD,2024-04-11 12:36:07,15.08829597,0.0001477,53.2156,198.8252,82.7417,277.3743,0.00012042,1.629e-05,0.0,0 STARLINK-3505,1 51750U 22016AN  24102.52508935  .00001629  00000-0  12042-3 0  9995,2 51750  53.2156 198.8252 0001477  82.7417 277.3743 15.08829597119575,6917.912,95.438,540.799,538.755,0.0
51750.0,STARLINK-3505,PAYLOAD,2024-04-11 14:11:30,15.08832482,0.000161,53.2167,198.528,80.9992,279.1182,0.00014945,2.091e-05,0.0,0 STARLINK-3505,1 51750U 22016AN  24102.59132787  .00002091  00000-0  14945-3 0  9998,2 51750  53.2167 198.5280 0001610  80.9992 279.1182 15.08832482118463,6917.903,95.438,540.882,538.655,0.0
51750.0,STARLINK-3505,PAYLOAD,2024-04-12 12:26:54,15.08836199,0.0001632,53.2172,194.3651,87.0343,273.0836,7.6493e-05,9.29e-06,0.0,0 STARLINK-3505,1 51750U 22016AN  24103.51869192  .00000929  00000-0  76493-4 0  9993,2 51750  53.2172 194.3651 0001632  87.0343 273.0836 15.08836199118601,6917.892,95.438,540.886,538.628,0.0
51750.0,STARLINK-3505,PAYLOAD,2024-04-13 12:17:41,15.08842433,0.0001556,53.2173,189.9041,90.1586,269.9584,6.9293e-05,8.15e-06,0.0,0 STARLINK-3505,1 51750U 22016AN  24104.51228943  .00000815  00000-0  69293-4 0  9991,2 51750  53.2173 189.9041 0001556  90.1586 269.9584 15.08842433119876,6917.873,95.437,540.814,538.662,0.0
51750.0,STARLINK-3505,PAYLOAD,2024-04-14 12:08:29,15.08831502,0.0001633,53.2183,185.4442,101.3178,258.7998,-1.4139e-05,-5.13e-06,0.0,0 STARLINK-3505,1 51750U 22016AN  24105.50590161 -.00000513  00000-0 -14139-4 0  9991,2 51750  53.2183 185.4442 0001633 101.3178 258.7998 15.08831502120020,6917.906,95.438,540.901,538.642,0.0
51750.0,STARLINK-3505,PAYLOAD,2024-04-15 05:37:43,15.08843665,0.0001381,53.2167,182.1672,104.1289,255.9857,2.2772e-05,7.5e-07,0.0,0 STARLINK-3505,1 51750U 22016AN  24106.23453411  .00000075  00000-0  22772-4 0  9991,2 51750  53.2167 182.1672 0001381 104.1289 255.9857 15.08843665120133,6917.869,95.437,540.69,538.779,0.0
51750.0,STARLINK-3505,PAYLOAD,2024-04-15 10:23:52,15.0884989,0.0001354,53.2166,181.2773,82.6009,277.5137,9.9157e-05,1.291e-05,0.0,0 STARLINK-3505,1 51750U 22016AN  24106.43324893  .00001291  00000-0  99157-4 0  9996,2 51750  53.2166 181.2773 0001354  82.6009 277.5137 15.08849890119049,6917.85,95.437,540.652,538.778,0.0
51750.0,STARLINK-3505,PAYLOAD,2024-04-16 05:28:30,15.08842121,0.0001365,53.2173,177.7143,95.4201,264.6947,0.00018417,2.645e-05,0.0,0 STARLINK-3505,1 51750U 22016AN  24107.22813438  .00002645  00000-0  18417-3 0  9995,2 51750  53.2173 177.7143 0001365  95.4201 264.6947 15.08842121120280,6917.874,95.437,540.683,538.795,0.0
51750.0,STARLINK-3505,PAYLOAD,2024-04-16 11:50:03,15.08850695,0.0001475,53.2161,176.5243,93.6854,266.4306,0.00026074,3.865e-05,0.0,0 STARLINK-3505,1 51750U 22016AN  24107.49309098  .00003865  00000-0  26074-3 0  9999,2 51750  53.2161 176.5243 0001475  93.6854 266.4306 15.08850695119205,6917.848,95.437,540.733,538.692,0.0
51750.0,STARLINK-3505,PAYLOAD,2024-04-17 03:43:53,15.08866216,0.0001424,53.2151,173.5483,87.8895,272.226,0.00032672,4.919e-05,0.0,0 STARLINK-3505,1 51750U 22016AN  24108.15547799  .00004919  00000-0  32672-3 0  9997,2 51750  53.2151 173.5483 0001424  87.8895 272.2260 15.08866216120427,6917.8,95.436,540.65,538.68,0.0
51750.0,STARLINK-3505,PAYLOAD,2024-04-17 11:40:49,15.08821451,0.0001464,53.2146,172.061,131.4239,228.6879,-0.00058254,-9.542e-05,0.0,0 STARLINK-3505,1 51750U 22016AN  24108.48668722 -.00009542  00000-0 -58254-3 0  9996,2 51750  53.2146 172.0610 0001464 131.4239 228.6879 15.08821451120477,6917.937,95.439,540.815,538.789,0.0
51750.0,STARLINK-3505,PAYLOAD,2024-04-18 11:31:38,15.08833659,0.0001259,53.2146,167.6002,86.0108,274.1028,0.0002143,3.124e-05,0.0,0 STARLINK-3505,1 51750U 22016AN  24109.48030325  .00003124  00000-0  21430-3 0  9993,2 51750  53.2146 167.6002 0001259  86.0108 274.1028 15.08833659120626,6917.9,95.438,540.636,538.894,0.0
51750.0,STARLINK-3505,PAYLOAD,2024-04-19 03:25:30,15.08830319,0.0001576,53.2151,164.6291,68.2184,291.8976,0.00047336,7.252e-05,0.0,0 STARLINK-3505,1 51750U 22016AN  24110.14271397  .00007252  00000-0  47336-3 0  9993,2 51750  53.2151 164.6291 0001576  68.2184 291.8976 15.08830319120726,6917.91,95.438,540.865,538.685,0.0
51750.0,STARLINK-3505,PAYLOAD,2024-04-19 08:11:39,15.08835135,0.0001779,53.2159,163.7369,60.7262,299.3908,0.00051453,7.909e-05,0.0,0 STARLINK-3505,1 51750U 22016AN  24110.34143432  .00007909  00000-0  51453-3 0  9997,2 51750  53.2159 163.7369 0001779  60.7262 299.3908 15.08835135119636,6917.895,95.438,540.991,538.53,0.0
51750.0,STARLINK-3505,PAYLOAD,2024-04-20 12:48:33,15.08861622,0.0001722,53.2155,158.3846,91.8085,268.3105,-0.0004177,-6.934e-05,0.0,0 STARLINK-3505,1 51750U 22016AN  24111.53371568 -.00006934  00000-0 -41770-3 0  9992,2 51750  53.2155 158.3846 0001722  91.8085 268.3105 15.08861622120938,6917.814,95.436,540.871,538.488,0.0
